[
    {
        "Altitude(m)": 607886.71130701,
        "Argument of Periapsis(deg)": 0.0,
        "Eccentricity": 0.0,
        "Inclination(deg)": 60.0,
        "Latitude(deg)": 40.9984974437294,
        "Longitude(deg)": 174.97303554967488,
        "Mean Anomaly(deg)": 49.09089999999999,
        "RAAN(deg)": 245.0,
        "Satellite Name": "Test1 1081",
        "Satellite Number": 1081,
        "Semi-Major Axis(m)": 6980739.136638005,
        "Time(s)": 0
    },
    {
        "Altitude(m)": 607987.6251799813,
        "Argument of Periapsis(deg)": 0.00010418945913296404,
        "Eccentricity": 0.0,
        "Inclination(deg)": 60.0,
        "Latitude(deg)": 41.463586941603765,
        "Longitude(deg)": 175.4772647591711,
        "Mean Anomaly(deg)": 49.711006145461795,
        "RAAN(deg)": 244.99957995086027,
        "Satellite Name": "Test1 1081",
        "Satellite Number": 1081,
        "Semi-Major Axis(m)": 6980739.136638005,
        "Time(s)": 10
    },
    {
        "Altitude(m)": 608088.5886605252,
        "Argument of Periapsis(deg)": 0.0002083789182659281,
        "Eccentricity": 0.0,
        "Inclination(deg)": 60.0,
        "Latitude(deg)": 41.926012252896186,
        "Longitude(deg)": 175.9893170008565,
        "Mean Anomaly(deg)": 50.33111229092365,
        "RAAN(deg)": 244.9991599017205,
        "Satellite Name": "Test1 1081",
        "Satellite Number": 1081,
        "Semi-Major Axis(m)": 6980739.136638005,
        "Time(s)": 20
    },
    {
        "Altitude(m)": 608189.5385274439,
        "Argument of Periapsis(deg)": 0.00031256837739889213,
        "Eccentricity": 0.0,
        "Inclination(deg)": 60.0,
        "Latitude(deg)": 42.38569262766177,
        "Longitude(deg)": 176.50938831588323,
        "Mean Anomaly(deg)": 50.95121843638551,
        "RAAN(deg)": 244.9987398525808,
        "Satellite Name": "Test1 1081",
        "Satellite Number": 1081,
        "Semi-Major Axis(m)": 6980739.136638005,
        "Time(s)": 30
    },
    {
        "Altitude(m)": 608290.4117862745,
        "Argument of Periapsis(deg)": 0.0004167578365318562,
        "Eccentricity": 0.0,
        "Inclination(deg)": 60.0,
        "Latitude(deg)": 42.8425447689064,
        "Longitude(deg)": 177.03767861209548,
        "Mean Anomaly(deg)": 51.5713245818473,
        "RAAN(deg)": 244.99831980344103,
        "Satellite Name": "Test1 1081",
        "Satellite Number": 1081,
        "Semi-Major Axis(m)": 6980739.136638005,
        "Time(s)": 40
    },
    {
        "Altitude(m)": 608391.1457005291,
        "Argument of Periapsis(deg)": 0.0005209472956648203,
        "Eccentricity": 0.0,
        "Inclination(deg)": 60.0,
        "Latitude(deg)": 43.296482753202106,
        "Longitude(deg)": 177.57439056900694,
        "Mean Anomaly(deg)": 52.191430727309154,
        "RAAN(deg)": 244.9978997543013,
        "Satellite Name": "Test1 1081",
        "Satellite Number": 1081,
        "Semi-Major Axis(m)": 6980739.136638005,
        "Time(s)": 50
    },
    {
        "Altitude(m)": 608491.6778227933,
        "Argument of Periapsis(deg)": 0.0006251367547977843,
        "Eccentricity": 0.0,
        "Inclination(deg)": 60.0,
        "Latitude(deg)": 43.74741795059026,
        "Longitude(deg)": 178.11973003588372,
        "Mean Anomaly(deg)": 52.811536872770965,
        "RAAN(deg)": 244.99747970516154,
        "Satellite Name": "Test1 1081",
        "Satellite Number": 1081,
        "Semi-Major Axis(m)": 6980739.136638005,
        "Time(s)": 60
    },
    {
        "Altitude(m)": 608591.9460255889,
        "Argument of Periapsis(deg)": 0.0007293262139307483,
        "Eccentricity": 0.0,
        "Inclination(deg)": 60.0,
        "Latitude(deg)": 44.19525894400865,
        "Longitude(deg)": 178.67390640817345,
        "Mean Anomaly(deg)": 53.43164301823282,
        "RAAN(deg)": 244.99705965602183,
        "Satellite Name": "Test1 1081",
        "Satellite Number": 1081,
        "Semi-Major Axis(m)": 6980739.136638005,
        "Time(s)": 70
    },
    {
        "Altitude(m)": 608691.8885320768,
        "Argument of Periapsis(deg)": 0.0008335156730637124,
        "Eccentricity": 0.0,
        "Inclination(deg)": 60.0,
        "Latitude(deg)": 44.63991144850735,
        "Longitude(deg)": 179.2371314673918,
        "Mean Anomaly(deg)": 54.05174916369461,
        "RAAN(deg)": 244.99663960688207,
        "Satellite Name": "Test1 1081",
        "Satellite Number": 1081,
        "Semi-Major Axis(m)": 6980739.136638005,
        "Time(s)": 80
    },
    {
        "Altitude(m)": 608791.4439465269,
        "Argument of Periapsis(deg)": 0.0009377051321966765,
        "Eccentricity": 0.0,
        "Inclination(deg)": 60.0,
        "Latitude(deg)": 45.08127823055268,
        "Longitude(deg)": 179.80961970808184,
        "Mean Anomaly(deg)": 54.67185530915647,
        "RAAN(deg)": 244.99621955774234,
        "Satellite Name": "Test1 1081",
        "Satellite Number": 1081,
        "Semi-Major Axis(m)": 6980739.136638005,
        "Time(s)": 90
    },
    {
        "Altitude(m)": 608890.5512845478,
        "Argument of Periapsis(deg)": 0.0010418945913296407,
        "Eccentricity": 0.0,
        "Inclination(deg)": 60.0,
        "Latitude(deg)": 45.51925902776132,
        "Longitude(deg)": -179.6084113632886,
        "Mean Anomaly(deg)": 55.291961454618274,
        "RAAN(deg)": 244.99579950860257,
        "Satellite Name": "Test1 1081",
        "Satellite Number": 1081,
        "Semi-Major Axis(m)": 6980739.136638005,
        "Time(s)": 100
    },
    {
        "Altitude(m)": 608989.1500030784,
        "Argument of Periapsis(deg)": 0.0011460840504626045,
        "Eccentricity": 0.0,
        "Inclination(deg)": 60.0,
        "Latitude(deg)": 45.95375046945524,
        "Longitude(deg)": -179.01674247274312,
        "Mean Anomaly(deg)": 55.91206760008013,
        "RAAN(deg)": 244.99537945946287,
        "Satellite Name": "Test1 1081",
        "Satellite Number": 1081,
        "Semi-Major Axis(m)": 6980739.136638005,
        "Time(s)": 110
    },
    {
        "Altitude(m)": 609087.1800301344,
        "Argument of Periapsis(deg)": 0.0012502735095955685,
        "Eccentricity": 0.0,
        "Inclination(deg)": 60.0,
        "Latitude(deg)": 46.38464599846258,
        "Longitude(deg)": -178.41515234328008,
        "Mean Anomaly(deg)": 56.53217374554198,
        "RAAN(deg)": 244.9949594103231,
        "Satellite Name": "Test1 1081",
        "Satellite Number": 1081,
        "Semi-Major Axis(m)": 6980739.136638005,
        "Time(s)": 120
    },
    {
        "Altitude(m)": 609184.5817942435,
        "Argument of Periapsis(deg)": 0.0013544629687285324,
        "Eccentricity": 0.0,
        "Inclination(deg)": 60.0,
        "Latitude(deg)": 46.8118357946522,
        "Longitude(deg)": -177.8034174949065,
        "Mean Anomaly(deg)": 57.15227989100378,
        "RAAN(deg)": 244.99453936118337,
        "Satellite Name": "Test1 1081",
        "Satellite Number": 1081,
        "Semi-Major Axis(m)": 6980739.136638005,
        "Time(s)": 130
    },
    {
        "Altitude(m)": 609281.2962536573,
        "Argument of Periapsis(deg)": 0.0014586524278614966,
        "Eccentricity": 0.0,
        "Inclination(deg)": 60.0,
        "Latitude(deg)": 47.23520670074182,
        "Longitude(deg)": -177.1813135958124,
        "Mean Anomaly(deg)": 57.77238603646563,
        "RAAN(deg)": 244.9941193120436,
        "Satellite Name": "Test1 1081",
        "Satellite Number": 1081,
        "Semi-Major Axis(m)": 6980739.136638005,
        "Time(s)": 140
    },
    {
        "Altitude(m)": 609377.2649251949,
        "Argument of Periapsis(deg)": 0.0015628418869944607,
        "Eccentricity": 0.0,
        "Inclination(deg)": 60.0,
        "Latitude(deg)": 47.6546421509698,
        "Longitude(deg)": -176.54861534174682,
        "Mean Anomaly(deg)": 58.39249218192744,
        "RAAN(deg)": 244.9936992629039,
        "Satellite Name": "Test1 1081",
        "Satellite Number": 1081,
        "Semi-Major Axis(m)": 6980739.136638005,
        "Time(s)": 150
    },
    {
        "Altitude(m)": 609472.4299128347,
        "Argument of Periapsis(deg)": 0.0016670313461274247,
        "Eccentricity": 0.0,
        "Inclination(deg)": 60.0,
        "Latitude(deg)": 48.07002210329224,
        "Longitude(deg)": -175.90509637935511,
        "Mean Anomaly(deg)": 59.01259832738929,
        "RAAN(deg)": 244.99327921376414,
        "Satellite Name": "Test1 1081",
        "Satellite Number": 1081,
        "Semi-Major Axis(m)": 6980739.136638005,
        "Time(s)": 160
    },
    {
        "Altitude(m)": 609566.7339359506,
        "Argument of Periapsis(deg)": 0.0017712208052603888,
        "Eccentricity": 0.0,
        "Inclination(deg)": 60.0,
        "Latitude(deg)": 48.48122297582989,
        "Longitude(deg)": -175.25053078929662,
        "Mean Anomaly(deg)": 59.63270447285114,
        "RAAN(deg)": 244.9928591646244,
        "Satellite Name": "Test1 1081",
        "Satellite Number": 1081,
        "Semi-Major Axis(m)": 6980739.136638005,
        "Time(s)": 170
    },
    {
        "Altitude(m)": 609660.1203572194,
        "Argument of Periapsis(deg)": 0.001875410264393353,
        "Eccentricity": 0.0,
        "Inclination(deg)": 60.0,
        "Latitude(deg)": 48.88811758835244,
        "Longitude(deg)": -174.58469310637545,
        "Mean Anomaly(deg)": 60.25281061831294,
        "RAAN(deg)": 244.99243911548464,
        "Satellite Name": "Test1 1081",
        "Satellite Number": 1081,
        "Semi-Major Axis(m)": 6980739.136638005,
        "Time(s)": 180
    },
    {
        "Altitude(m)": 609752.5332101765,
        "Argument of Periapsis(deg)": 0.0019795997235263173,
        "Eccentricity": 0.0,
        "Inclination(deg)": 60.0,
        "Latitude(deg)": 49.290575109666136,
        "Longitude(deg)": -173.9073583925454,
        "Mean Anomaly(deg)": 60.872916763774796,
        "RAAN(deg)": 244.99201906634494,
        "Satellite Name": "Test1 1081",
        "Satellite Number": 1081,
        "Semi-Major Axis(m)": 6980739.136638005,
        "Time(s)": 190
    }
]